#dP2018  4  5  0  0  0.00000000      96 __u+U ITR00 FIT  IAC
## 1995 345600.00000000   900.00000000 58213 0.0000000000000
+   89   C01C02C03C04C05C06C07C08C09C10C11C12C13C14E01E02E03
+        E04E05E07E08E09E11E12E14E18E19E24E26E30G01G02G03G04
+        G05G06G07G08G09G10G11G12G13G14G15G16G17G18G19G20G21
+        G22G23G24G25G26G27G28G29G30G31G32J01J02J03R01R02R03
+        R04R05R06R07R08R09R10R11R13R14R15R16R17R18R19R20R21
+        R22R23R24R26  0  0  0  0  0  0  0  0  0  0  0  0  0
++         0  0  0  0  0  0  0  0  0  0  0  0  0  0  0  0  0
++         0  0  0  0  0  0  0  0  0  0  0  0  0  0  0  0  0
++         0  0  0  0  0  0  0  0  0  0  0  0  0  0  0  0  0
++         0  0  0  0  0  0  0  0  0  0  0  0  0  0  0  0  0
++         0  0  0  0  0  0  0  0  0  0  0  0  0  0  0  0  0
++         0  0  0  0  0  0  0  0  0  0  0  0  0  0  0  0  0
%c M  cc GPS ccc cccc cccc cccc cccc ccccc ccccc ccccc ccccc
%c cc cc ccc ccc cccc cccc cccc cccc ccccc ccccc ccccc ccccc
%f  0.0000000  0.000000000  0.00000000000  0.000000000000000
%f  0.0000000  0.000000000  0.00000000000  0.000000000000000
%i    0    0    0    0      0      0      0      0         0
%i    0    0    0    0      0      0      0      0         0
/*                                                          
/*   RSA / INFORMATION & ANALYSIS CENTER (IAC) OF MCC       
/*   ULTRA-RAPID DETERMINATION                              
/* PCV:IGS14_1992 OL/AL:FES2004  NONE     YN ORB:CoN CLK:CoN
*  2018 04 05 10 30  0.00000000
PC01 -32334.430398  27035.667657    787.353668    572.945083
PC02   4405.600490  41932.622048   -140.670699    627.549443
PC03 -14852.208925  39453.785630    966.845897   -189.217920
PC04 -39606.118419  14501.381993    542.604168     13.472385
PC05      0.000000      0.000000      0.000000 999999.999999
PC06 -13702.717014  20928.980858 -33704.270875    747.852447
PC07 -22198.637783  33502.855199  12063.833414    906.457882
PC08  -8192.564064  34073.872437  23683.115626    268.899877
PC09   4152.150537  26504.555712 -32307.483256   -249.093914
PC10 -11287.837955  34007.862140  22055.611932   -135.025817
PC11  10010.721714 -12105.848912 -23000.050969   -455.844875
PC12  20286.670001   7065.277394 -17801.146508    407.357143
PC13   1671.861743  41020.575447  10142.576041   -275.956085
PC14  21778.898778 -11954.916464  12710.452721    362.613400
PE01 -10145.931167 -12747.516485 -24718.578368   -314.536973
PE02  10151.737552  12734.442651  24711.824123      9.665060
PE03  21727.230046  14902.814714 -13495.122785    -17.570175
PE04 -29048.515123  -3454.199404  -4533.370284     -8.321687
PE05   1633.371356  17664.753547 -23690.627002    290.459530
PE07  19355.783788 -10089.857751  20004.382787     55.650118
PE08  29078.993375   3199.020517   4544.831854   6610.382840
PE09 -19268.923618  10124.210799 -20045.968086   6828.770296
PE11 -10161.688906  16982.022521  22007.007222   1837.800489
PE12 -17850.035571  -4729.441520  23149.616860   3869.423821
PE14  23734.862431  11801.464849  -8301.618612   6604.119559
PE18 -18804.940632 -22298.160456  -4596.121045   6305.231681
PE19 -20297.931985 -15449.165165  15028.798388     21.029318
PE24 -21049.528122  20745.217654  -1855.321705   6775.500343
PE26  -2994.753771 -28280.790003  -8206.607835   6085.121645
PE30  22151.278301  -5697.165970  18769.549709   5945.371624
PG01 -13254.456157  16388.807578  15836.684432    -38.658989
PG02  14066.598690   8154.992520 -20491.594196    153.682653
PG03 -22642.837149  12944.174645  -4888.714345     44.102570
PG04 -10593.180300 -11588.086847 -21713.138582     49.887071
PG05  23176.981494    333.032180 -13253.299462    -10.535482
PG06   7633.343734  20530.334998 -14969.091409    410.170513
PG07  -5433.718415  25644.171338  -2084.798186    212.239471
PG08 -19678.257559    594.787187  17950.515967    -96.764919
PG09  -1665.047501  16919.814705 -20436.041777    509.970694
PG10  -5021.599250 -14395.330070  21785.009478    176.507502
PG11 -12029.645678  12949.193341  19306.515498   -737.526391
PG12  24092.058295 -10458.554897  -3316.713612    341.358447
PG13  21581.156856   9732.213510  11920.771509    -95.262103
PG14 -18931.331615 -18713.455991   1692.621640    -95.863465
PG15  20136.144763  -2208.756948  17157.780676   -355.786127
PG16 -23071.855362  -2047.542052 -13526.948350     28.507588
PG17  13775.129324  20622.493412  10064.339210   -109.661593
PG18 -15068.472460   7922.533382  19890.319266     -7.066245
PG19  17976.357725  19208.634566   2493.905603   -445.897564
PG20  18783.317320 -16917.149698   7940.535173    505.012622
PG21   1219.344280 -26519.187470   1495.896431   -411.157156
PG22 -24798.107075   8960.086330   3451.158672   -347.360960
PG23 -14519.833414   7774.920928 -20633.591623   -218.176072
PG24  14253.499514 -13299.766425  17793.668408    -48.175291
PG25  14697.351349 -16633.307292 -14580.459977   -564.739761
PG26 -15479.809329  -8590.893001 -19847.320632   -193.251209
PG27 -22982.049466 -11380.090973   7342.325056    370.200968
PG28    394.446997  15339.604485  22308.453741    703.486789
PG29   5532.375630 -14324.886977 -21690.511115    471.173603
PG30    177.355662  25585.704181   6826.723071     87.883310
PG31  -8126.624222 -19256.977304 -16095.622899    130.608415
PG32 -14023.144901 -20004.046031  10551.545626   -523.354244
PJ01 -34546.340177  20207.594804  -8631.703386   -318.690150
PJ02 -24164.956631  32167.581619  -8469.234038      0.512117
PJ03 -27549.358801  21921.287732  28294.099437    -16.279852
PR01 -17413.537811   7496.898267 -17053.009932     24.381897
PR02   3109.897393  10976.461648 -22770.964178    303.291675
PR03  20079.337236   7662.900417 -13666.620891    128.632153
PR04  25211.990119   -426.026030   3818.714717    255.982535
PR05  15936.929148  -8132.059629  18179.441977   -277.569300
PR06  -4314.161129 -11101.502067  22551.671436    129.981826
PR07 -20375.989787  -7572.276745  13410.764644    -34.372874
PR08 -25318.541492     12.450527  -3061.473285     22.756821
PR09   5348.306337 -20379.253106 -14415.903458     36.833942
PR10  -7132.902447  -8371.350262 -23046.374488     21.905233
PR11 -16049.955342   8665.676508 -17804.838118    -25.703666
PR13  -4805.720645  20189.041832  14806.559862     -9.124659
PR14   7250.084681   8629.755319  22887.713160     26.060497
PR15  14703.775715  -5278.668300  20130.252524     -8.334049
PR16  14879.555288 -20405.769887   3098.337643     89.500895
PR17  13980.862954  19734.188156  -8139.364599    122.279896
PR18  13502.612639   5808.214447 -20809.668440    190.778393
PR19   5617.128558 -11478.504876 -22072.771795    -49.201166
PR20  -6117.522631 -22938.594375  -9396.411033   -333.237298
PR21 -14041.572314 -19534.459765   8461.547764     22.136883
PR22 -12970.640662  -4094.726063  21618.652551    -32.358044
PR23  -3229.777204  14637.502918  20633.071164    145.895222
PR24   6952.090410  22952.760832   8638.211203   -164.590858
PR26  -6244.396029 -22676.606349  -9835.803462     10.322471
EOF
